[{"OBJECT_NAME":"STARLINK-2159","OBJECT_ID":"2021-017Z","EPOCH":"2026-03-10T00:00:02.999808","MEAN_MOTION":15.44032923,"ECCENTRICITY":0.00013313,"INCLINATION":53.1594,"RA_OF_ASC_NODE":202.7134,"ARG_OF_PERICENTER":70.2433,"MEAN_ANOMALY":28.5184,"EPHEMERIS_TYPE":0,"CLASSIFICATION_TYPE":"U","NORAD_CAT_ID":47745,"ELEMENT_SET_NO":999,"REV_AT_EPOCH":586,"BSTAR":0.00019359105,"MEAN_MOTION_DOT":8.562e-5,"MEAN_MOTION_DDOT":0},{"OBJECT_NAME":"DELTA 2 R\/B(1)","OBJECT_ID":"1990-008B","EPOCH":"2026-03-09T08:59:25.462464","MEAN_MOTION":15.55957726,"ECCENTRICITY":0.00854397,"INCLINATION":35.6039,"RA_OF_ASC_NODE":176.922,"ARG_OF_PERICENTER":255.8292,"MEAN_ANOMALY":103.2939,"EPHEMERIS_TYPE":0,"CLASSIFICATION_TYPE":"U","NORAD_CAT_ID":20453,"ELEMENT_SET_NO":999,"REV_AT_EPOCH":92608,"BSTAR":0.00075711194,"MEAN_MOTION_DOT":0.00064698,"MEAN_MOTION_DDOT":0}]
